[{"OBJECT_NAME":"IHOPSAT-TD","OBJECT_ID":"2019-089H","EPOCH":"2026-03-09T00:09:00.873504","MEAN_MOTION":15.11211987,"ECCENTRICITY":0.00040442,"INCLINATION":36.9662,"RA_OF_ASC_NODE":282.0238,"ARG_OF_PERICENTER":141.2084,"MEAN_ANOMALY":218.8952,"EPHEMERIS_TYPE":0,"CLASSIFICATION_TYPE":"U","NORAD_CAT_ID":44859,"ELEMENT_SET_NO":999,"REV_AT_EPOCH":34282,"BSTAR":0.00027431478,"MEAN_MOTION_DOT":4.62e-5,"MEAN_MOTION_DDOT":0},{"OBJECT_NAME":"FENGYUN 1C DEB","OBJECT_ID":"1999-025AXU","EPOCH":"2026-03-09T22:45:17.410752","MEAN_MOTION":14.89016033,"ECCENTRICITY":0.0148202,"INCLINATION":97.9241,"RA_OF_ASC_NODE":129.3565,"ARG_OF_PERICENTER":114.5021,"MEAN_ANOMALY":247.1731,"EPHEMERIS_TYPE":0,"CLASSIFICATION_TYPE":"U","NORAD_CAT_ID":30882,"ELEMENT_SET_NO":999,"REV_AT_EPOCH":946,"BSTAR":0.0012177352,"MEAN_MOTION_DOT":0.00014041,"MEAN_MOTION_DDOT":0}]
